[{"OBJECT_NAME":"ALSAT-2B","OBJECT_ID":"2016-059D","EPOCH":"2026-03-09T22:53:14.170272","MEAN_MOTION":14.70730607,"ECCENTRICITY":0.00016779,"INCLINATION":98.0009,"RA_OF_ASC_NODE":133.0936,"ARG_OF_PERICENTER":116.373,"MEAN_ANOMALY":243.7649,"EPHEMERIS_TYPE":0,"CLASSIFICATION_TYPE":"U","NORAD_CAT_ID":41786,"ELEMENT_SET_NO":999,"REV_AT_EPOCH":50618,"BSTAR":0.00022227999,"MEAN_MOTION_DOT":1.307e-5,"MEAN_MOTION_DDOT":0},{"OBJECT_NAME":"FENGYUN 1C DEB","OBJECT_ID":"1999-025DJ","EPOCH":"2026-03-09T15:12:33.799392","MEAN_MOTION":14.45278432,"ECCENTRICITY":0.0234382,"INCLINATION":98.9861,"RA_OF_ASC_NODE":298.7424,"ARG_OF_PERICENTER":278.6262,"MEAN_ANOMALY":154.9481,"EPHEMERIS_TYPE":0,"CLASSIFICATION_TYPE":"U","NORAD_CAT_ID":29816,"ELEMENT_SET_NO":999,"REV_AT_EPOCH":99442,"BSTAR":0.0011276,"MEAN_MOTION_DOT":5.496e-5,"MEAN_MOTION_DDOT":0}]
